{"type": "FeatureCollection", "features": [ {"type": "Feature", "properties": {"norad_id": 41335, "name": "SENTINEL-3A", "group": "resource", "lat": -17.080759640299046, "lon": -136.96480348765746, "alt_km": 807.6886239366477, "timestamp": "2025-12-06T14:35:36.784775+00:00", "meta": {"OBJECT_NAME": "SENTINEL-3A", "OBJECT_ID": "2016-011A", "EPOCH": "2025-12-06T06:56:23.833536", "MEAN_MOTION": 14.26742953, "ECCENTRICITY": 9.709e-05, "INCLINATION": 98.6215, "RA_OF_ASC_NODE": 45.3931, "ARG_OF_PERICENTER": 92.1992, "MEAN_ANOMALY": 267.9299, "EPHEMERIS_TYPE": 0, "CLASSIFICATION_TYPE": "U", "NORAD_CAT_ID": 41335, "ELEMENT_SET_NO": 999, "REV_AT_EPOCH": 51055, "BSTAR": 0.00015146167, "MEAN_MOTION_DOT": 3.23e-06, "MEAN_MOTION_DDOT": 0}, "tle": {"line1": "1 41335U 16011A   25340.28916474  .00000323  00000+0  15146-3 0  9997", "line2": "2 41335  98.6215  45.3931 0000970  92.1992 267.9299 14.26742953510555"}}, "geometry": {"type": "Point", "coordinates": [-136.96480348765746, -17.080759640299046]}}, {"type": "Feature", "properties": {"norad_id": 41556, "name": "ZIYUAN 3-2 (ZY 3-2)", "group": "resource", "lat": 21.950402343621818, "lon": 51.87162038126116, "alt_km": 504.3134697104906, "timestamp": "2025-12-06T14:35:36.784786+00:00", "meta": {"OBJECT_NAME": "ZIYUAN 3-2 (ZY 3-2)", "OBJECT_ID": "2016-033A", "EPOCH": "2025-12-06T06:36:13.656384", "MEAN_MOTION": 15.21364342, "ECCENTRICITY": 0.00123655, "INCLINATION": 97.4054, "RA_OF_ASC_NODE": 54.5489, "ARG_OF_PERICENTER": 274.3933, "MEAN_ANOMALY": 85.589, "EPHEMERIS_TYPE": 0, "CLASSIFICATION_TYPE": "U", "NORAD_CAT_ID": 41556, "ELEMENT_SET_NO": 999, "REV_AT_EPOCH": 52865, "BSTAR": 0.00055732915, "MEAN_MOTION_DOT": 0.00012457, "MEAN_MOTION_DDOT": 0}, "tle": {"line1": "1 41556U 16033A   25340.27515806  .00012457  00000+0  55733-3 0  9996", "line2": "2 41556  97.4054  54.5489 0012365 274.3933  85.5890 15.21364342528657"}}, "geometry": {"type": "Point", "coordinates": [51.87162038126116, 21.950402343621818]}}, {"type": "Feature", "properties": {"norad_id": 41599, "name": "CARTOSAT-2C", "group": "resource", "lat": 13.819722148785562, "lon": 36.07023746988405, "alt_km": 506.7021959714748, "timestamp": "2025-12-06T14:35:36.784796+00:00", "meta": {"OBJECT_NAME": "CARTOSAT-2C", "OBJECT_ID": "2016-040A", "EPOCH": "2025-12-06T06:37:42.530880", "MEAN_MOTION": 15.1919995, "ECCENTRICITY": 0.00110126, "INCLINATION": 97.4773, "RA_OF_ASC_NODE": 37.5932, "ARG_OF_PERICENTER": 84.771, "MEAN_ANOMALY": 275.4781, "EPHEMERIS_TYPE": 0, "CLASSIFICATION_TYPE": "U", "NORAD_CAT_ID": 41599, "ELEMENT_SET_NO": 999, "REV_AT_EPOCH": 52442, "BSTAR": 0.00039337914, "MEAN_MOTION_DOT": 8.226e-05, "MEAN_MOTION_DDOT": 0}, "tle": {"line1": "1 41599U 16040A   25340.27618670  .00008226  00000+0  39338-3 0  9996", "line2": "2 41599  97.4773  37.5932 0011012  84.7710 275.4781 15.19199950524428"}}, "geometry": {"type": "Point", "coordinates": [36.07023746988405, 13.819722148785562]}}, {"type": "Feature", "properties": {"norad_id": 41601, "name": "SKYSAT-C1", "group": "resource", "lat": 42.055987039660195, "lon": -155.68299446713624, "alt_km": 465.8509353070358, "timestamp": "2025-12-06T14:35:36.784807+00:00", "meta": {"OBJECT_NAME": "SKYSAT-C1", "OBJECT_ID": "2016-040C", "EPOCH": "2025-12-06T03:01:32.332224", "MEAN_MOTION": 15.32410968, "ECCENTRICITY": 0.00030314, "INCLINATION": 96.9827, "RA_OF_ASC_NODE": 17.5138, "ARG_OF_PERICENTER": 32.3321, "MEAN_ANOMALY": 327.8107, "EPHEMERIS_TYPE": 0, "CLASSIFICATION_TYPE": "U", "NORAD_CAT_ID": 41601, "ELEMENT_SET_NO": 999, "REV_AT_EPOCH": 52826, "BSTAR": 0.00046316427, "MEAN_MOTION_DOT": 0.00014435, "MEAN_MOTION_DDOT": 0}, "tle": {"line1": "1 41601U 16040C   25340.12606866  .00014435  00000+0  46316-3 0  9991", "line2": "2 41601  96.9827  17.5138 0003031  32.3321 327.8107 15.32410968528261"}}, "geometry": {"type": "Point", "coordinates": [-155.68299446713624, 42.055987039660195]}}, {"type": "Feature", "properties": {"norad_id": 41603, "name": "LAPAN-A3", "group": "resource", "lat": -56.538965587028976, "lon": -10.675380413520607, "alt_km": 474.31337569895186, "timestamp": "2025-12-06T14:35:36.784817+00:00", "meta": {"OBJECT_NAME": "LAPAN-A3", "OBJECT_ID": "2016-040E", "EPOCH": "2025-12-06T07:00:06.939936", "MEAN_MOTION": 15.31474269, "ECCENTRICITY": 0.00104581, "INCLINATION": 97.1422, "RA_OF_ASC_NODE": 338.0829, "ARG_OF_PERICENTER": 358.0428, "MEAN_ANOMALY": 2.0772, "EPHEMERIS_TYPE": 0, "CLASSIFICATION_TYPE": "U", "NORAD_CAT_ID": 41603, "ELEMENT_SET_NO": 999, "REV_AT_EPOCH": 52527, "BSTAR": 0.00021624739, "MEAN_MOTION_DOT": 6.509e-05, "MEAN_MOTION_DDOT": 0}, "tle": {"line1": "1 41603U 16040E   25340.29174699  .00006509  00000+0  21625-3 0  9994", "line2": "2 41603  97.1422 338.0829 0010458 358.0428   2.0772 15.31474269525273"}}, "geometry": {"type": "Point", "coordinates": [-10.675380413520607, -56.538965587028976]}}, {"type": "Feature", "properties": {"norad_id": 41604, "name": "BIROS", "group": "resource", "lat": -47.46431371617813, "lon": 19.57963661911761, "alt_km": 318.84513293372765, "timestamp": "2025-12-06T14:35:36.784827+00:00", "meta": {"OBJECT_NAME": "BIROS", "OBJECT_ID": "2016-040F", "EPOCH": "2025-12-06T01:10:33.712320", "MEAN_MOTION": 15.86962329, "ECCENTRICITY": 0.00029305, "INCLINATION": 97.0681, "RA_OF_ASC_NODE": 11.2276, "ARG_OF_PERICENTER": 164.8152, "MEAN_ANOMALY": 195.3208, "EPHEMERIS_TYPE": 0, "CLASSIFICATION_TYPE": "U", "NORAD_CAT_ID": 41604, "ELEMENT_SET_NO": 999, "REV_AT_EPOCH": 52766, "BSTAR": 0.00071536052, "MEAN_MOTION_DOT": 0.00186815, "MEAN_MOTION_DDOT": 0}, "tle": {"line1": "1 41604U 16040F   25340.04900130  .00186815  00000+0  71536-3 0  9990", "line2": "2 41604  97.0681  11.2276 0002930 164.8152 195.3208 15.86962329527663"}}, "geometry": {"type": "Point", "coordinates": [19.57963661911761, -47.46431371617813]}}, {"type": "Feature", "properties": {"norad_id": 41727, "name": "GAOFEN-3", "group": "resource", "lat": -66.55467057808048, "lon": 146.35708776078957, "alt_km": 759.5189327098078, "timestamp": "2025-12-06T14:35:36.784837+00:00", "meta": {"OBJECT_NAME": "GAOFEN-3", "OBJECT_ID": "2016-049A", "EPOCH": "2025-12-06T06:47:12.777792", "MEAN_MOTION": 14.42211416, "ECCENTRICITY": 0.00015332, "INCLINATION": 98.404, "RA_OF_ASC_NODE": 345.9676, "ARG_OF_PERICENTER": 70.8085, "MEAN_ANOMALY": 289.327, "EPHEMERIS_TYPE": 0, "CLASSIFICATION_TYPE": "U", "NORAD_CAT_ID": 41727, "ELEMENT_SET_NO": 999, "REV_AT_EPOCH": 49084, "BSTAR": 7.0642323e-05, "MEAN_MOTION_DOT": 1.89e-06, "MEAN_MOTION_DDOT": 0}, "tle": {"line1": "1 41727U 16049A   25340.28278678  .00000189  00000+0  70642-4 0  9993", "line2": "2 41727  98.4040 345.9676 0001533  70.8085 289.3270 14.42211416490840"}}, "geometry": {"type": "Point", "coordinates": [146.35708776078957, -66.55467057808048]}}, {"type": "Feature", "properties": {"norad_id": 41771, "name": "SKYSAT-C4", "group": "resource", "lat": -40.581845748787444, "lon": -179.89129012965034, "alt_km": 446.92153484348455, "timestamp": "2025-12-06T14:35:36.784848+00:00", "meta": {"OBJECT_NAME": "SKYSAT-C4", "OBJECT_ID": "2016-058B", "EPOCH": "2025-12-06T01:10:44.376672", "MEAN_MOTION": 15.41966425, "ECCENTRICITY": 8.956e-05, "INCLINATION": 96.9374, "RA_OF_ASC_NODE": 5.5637, "ARG_OF_PERICENTER": 128.2614, "MEAN_ANOMALY": 231.8715, "EPHEMERIS_TYPE": 0, "CLASSIFICATION_TYPE": "U", "NORAD_CAT_ID": 41771, "ELEMENT_SET_NO": 999, "REV_AT_EPOCH": 51564, "BSTAR": 0.00051031777, "MEAN_MOTION_DOT": 0.0002168, "MEAN_MOTION_DDOT": 0}, "tle": {"line1": "1 41771U 16058B   25340.04912473  .00021680  00000+0  51032-3 0  9994", "line2": "2 41771  96.9374   5.5637 0000895 128.2614 231.8715 15.41966425515643"}}, "geometry": {"type": "Point", "coordinates": [-179.89129012965034, -40.581845748787444]}}, {"type": "Feature", "properties": {"norad_id": 41772, "name": "SKYSAT-C5", "group": "resource", "lat": -72.76623101448487, "lon": 48.21280125750466, "alt_km": 468.58301512042544, "timestamp": "2025-12-06T14:35:36.784858+00:00", "meta": {"OBJECT_NAME": "SKYSAT-C5", "OBJECT_ID": "2016-058C", "EPOCH": "2025-12-06T07:05:47.209056", "MEAN_MOTION": 15.35483302, "ECCENTRICITY": 0.00026936, "INCLINATION": 97.0766, "RA_OF_ASC_NODE": 24.3042, "ARG_OF_PERICENTER": 119.9432, "MEAN_ANOMALY": 240.208, "EPHEMERIS_TYPE": 0, "CLASSIFICATION_TYPE": "U", "NORAD_CAT_ID": 41772, "ELEMENT_SET_NO": 999, "REV_AT_EPOCH": 51417, "BSTAR": 0.00052165201, "MEAN_MOTION_DOT": 0.00017932, "MEAN_MOTION_DDOT": 0}, "tle": {"line1": "1 41772U 16058C   25340.29568529  .00017932  00000+0  52165-3 0  9994", "line2": "2 41772  97.0766  24.3042 0002693 119.9432 240.2080 15.35483302514170"}}, "geometry": {"type": "Point", "coordinates": [48.21280125750466, -72.76623101448487]}}, {"type": "Feature", "properties": {"norad_id": 41773, "name": "SKYSAT-C2", "group": "resource", "lat": -73.1505774080071, "lon": 161.3278315723966, "alt_km": 465.15144344383225, "timestamp": "2025-12-06T14:35:36.784868+00:00", "meta": {"OBJECT_NAME": "SKYSAT-C2", "OBJECT_ID": "2016-058D", "EPOCH": "2025-12-06T00:59:22.221888", "MEAN_MOTION": 15.37045188, "ECCENTRICITY": 0.00048759, "INCLINATION": 97.0361, "RA_OF_ASC_NODE": 4.853, "ARG_OF_PERICENTER": 51.4916, "MEAN_ANOMALY": 308.6766, "EPHEMERIS_TYPE": 0, "CLASSIFICATION_TYPE": "U", "NORAD_CAT_ID": 41773, "ELEMENT_SET_NO": 999, "REV_AT_EPOCH": 51533, "BSTAR": 0.00046548524, "MEAN_MOTION_DOT": 0.00016818, "MEAN_MOTION_DDOT": 0}, "tle": {"line1": "1 41773U 16058D   25340.04122942  .00016818  00000+0  46549-3 0  9994", "line2": "2 41773  97.0361   4.8530 0004875  51.4916 308.6766 15.37045188515335"}}, "geometry": {"type": "Point", "coordinates": [161.3278315723966, -73.1505774080071]}}]}